{
  "norad_id": 63914,
  "name": "STARLINK-34068",
  "history": [
    {
      "epoch": "2026-05-04T14:54:34.225344Z",
      "apogee_km": 484.02741125239845,
      "perigee_km": 482.0184636227168,
      "latitude_deg": 4.97842756789921e-06,
      "longitude_deg": 134.02996319013147,
      "height_km": 482.57796812209864,
      "semi_major_axis_km": 6861.159937437557,
      "eccentricity": 0.0001464,
      "inclination_deg": 42.9998,
      "raan_deg": 220.1805,
      "arg_perigee_deg": 282.751,
      "mean_anomaly_deg": 77.3178,
      "mean_motion_rev_day": 15.27588736
    },
    {
      "epoch": "2026-05-05T14:26:54.520224Z",
      "apogee_km": 483.9442206720769,
      "perigee_km": 481.9737139102708,
      "latitude_deg": -3.9004025694640807e-05,
      "longitude_deg": 134.43933942643102,
      "height_km": 482.5991412667015,
      "semi_major_axis_km": 6861.095967291174,
      "eccentricity": 0.0001436,
      "inclination_deg": 42.9975,
      "raan_deg": 214.6412,
      "arg_perigee_deg": 277.9511,
      "mean_anomaly_deg": 82.1177,
      "mean_motion_rev_day": 15.276101
    },
    {
      "epoch": "2026-05-06T15:33:25.687008Z",
      "apogee_km": 484.35384830752173,
      "perigee_km": 481.80147645311536,
      "latitude_deg": 3.446788571654082e-05,
      "longitude_deg": 110.86867625989441,
      "height_km": 482.888957506649,
      "semi_major_axis_km": 6861.214662380318,
      "eccentricity": 0.000186,
      "inclination_deg": 42.9976,
      "raan_deg": 208.7315,
      "arg_perigee_deg": 268.4508,
      "mean_anomaly_deg": 91.6131,
      "mean_motion_rev_day": 15.2757046
    },
    {
      "epoch": "2026-05-07T13:31:36.998688Z",
      "apogee_km": 484.2271712527263,
      "perigee_km": 481.7983242420232,
      "latitude_deg": 4.876263812015133e-06,
      "longitude_deg": 135.25414142154506,
      "height_km": 482.8295026591044,
      "semi_major_axis_km": 6861.149747747374,
      "eccentricity": 0.000177,
      "inclination_deg": 43.0026,
      "raan_deg": 203.5664,
      "arg_perigee_deg": 268.1373,
      "mean_anomaly_deg": 91.9276,
      "mean_motion_rev_day": 15.27592139
    },
    {
      "epoch": "2026-05-08T20:54:43.824384Z",
      "apogee_km": 484.6619564885659,
      "perigee_km": 481.24376152080913,
      "latitude_deg": -3.32692353588742e-05,
      "longitude_deg": 15.79821080865074,
      "height_km": 482.6471913018762,
      "semi_major_axis_km": 6861.089859004687,
      "eccentricity": 0.0002491,
      "inclination_deg": 43.0001,
      "raan_deg": 196.1779,
      "arg_perigee_deg": 272.7907,
      "mean_anomaly_deg": 87.2659,
      "mean_motion_rev_day": 15.2761214
    },
    {
      "epoch": "2026-05-09T11:02:08.695104Z",
      "apogee_km": 483.28878867407366,
      "perigee_km": 482.7014757635561,
      "latitude_deg": -5.800763534459042e-06,
      "longitude_deg": 160.042276210611,
      "height_km": 483.0002729121864,
      "semi_major_axis_km": 6861.132132218815,
      "eccentricity": 4.28e-05,
      "inclination_deg": 42.9956,
      "raan_deg": 192.8556,
      "arg_perigee_deg": 218.4461,
      "mean_anomaly_deg": 141.636,
      "mean_motion_rev_day": 15.27598022
    },
    {
      "epoch": "2026-05-10T10:34:29.932608Z",
      "apogee_km": 483.7379213342456,
      "perigee_km": 482.3917535337414,
      "latitude_deg": -1.966754112502014e-05,
      "longitude_deg": 160.4475483809542,
      "height_km": 482.8113797337139,
      "semi_major_axis_km": 6861.201837433993,
      "eccentricity": 9.81e-05,
      "inclination_deg": 43.0002,
      "raan_deg": 187.3161,
      "arg_perigee_deg": 272.54,
      "mean_anomaly_deg": 87.5339,
      "mean_motion_rev_day": 15.27574743
    },
    {
      "epoch": "2026-05-11T19:31:46.819776Z",
      "apogee_km": 484.4214888172919,
      "perigee_km": 481.6029287223282,
      "latitude_deg": -2.1635497601022075e-05,
      "longitude_deg": 17.017281359093193,
      "height_km": 482.56032529360647,
      "semi_major_axis_km": 6861.14920876981,
      "eccentricity": 0.0002054,
      "inclination_deg": 42.9999,
      "raan_deg": 179.5596,
      "arg_perigee_deg": 279.3558,
      "mean_anomaly_deg": 80.7061,
      "mean_motion_rev_day": 15.27592319
    },
    {
      "epoch": "2026-05-12T12:47:30.012000Z",
      "apogee_km": 484.09647622094235,
      "perigee_km": 481.9585373606269,
      "latitude_deg": 4.4137882209155854e-05,
      "longitude_deg": 113.31815909352107,
      "height_km": 482.63250438692967,
      "semi_major_axis_km": 6861.164506790785,
      "eccentricity": 0.0001558,
      "inclination_deg": 43.0002,
      "raan_deg": 175.4993,
      "arg_perigee_deg": 279.2516,
      "mean_anomaly_deg": 80.816,
      "mean_motion_rev_day": 15.2758721
    },
    {
      "epoch": "2026-05-13T09:11:31.934400Z",
      "apogee_km": 483.9983818996998,
      "perigee_km": 482.0425403538311,
      "latitude_deg": 5.025315023314866e-05,
      "longitude_deg": 161.6709359477917,
      "height_km": 482.6427742774989,
      "semi_major_axis_km": 6861.157461126765,
      "eccentricity": 0.00014253,
      "inclination_deg": 42.9988,
      "raan_deg": 170.6979,
      "arg_perigee_deg": 279.0769,
      "mean_anomaly_deg": 80.9922,
      "mean_motion_rev_day": 15.27589563
    }
  ]
}